{
    "links": {
        "self": "http://www.neowsapp.com/rest/v1/neo/3781977?api_key=iIulBulltgU6a56xZRHN4H3l9WmuAYTsLGpBGhQ2"
    },
    "id": "3781977",
    "neo_reference_id": "3781977",
    "name": "(2017 SV19)",
    "designation": "2017 SV19",
    "nasa_jpl_url": "http://ssd.jpl.nasa.gov/sbdb.cgi?sstr=3781977",
    "absolute_magnitude_h": 25.0,
    "estimated_diameter": {
        "kilometers": {
            "estimated_diameter_min": 0.02658,
            "estimated_diameter_max": 0.0594346868
        },
        "meters": {
            "estimated_diameter_min": 26.58,
            "estimated_diameter_max": 59.4346868419
        },
        "miles": {
            "estimated_diameter_min": 0.0165160412,
            "estimated_diameter_max": 0.0369309908
        },
        "feet": {
            "estimated_diameter_min": 87.2047272,
            "estimated_diameter_max": 194.9956979785
        }
    },
    "is_potentially_hazardous_asteroid": false,
    "close_approach_data": [
        {
            "close_approach_date": "1950-08-28",
            "close_approach_date_full": "1950-Aug-28 04:33",
            "epoch_date_close_approach": -610486020000,
            "relative_velocity": {
                "kilometers_per_second": "2.0463794012",
                "kilometers_per_hour": "7366.9658442446",
                "miles_per_hour": "4577.5460824974"
            },
            "miss_distance": {
                "astronomical": "0.1074772162",
                "lunar": "41.8086371018",
                "kilometers": "16078362.617049494",
                "miles": "9990631.2585072572"
            },
            "orbiting_body": "Earth"
        },
        {
            "close_approach_date": "1983-08-29",
            "close_approach_date_full": "1983-Aug-29 12:04",
            "epoch_date_close_approach": 431006640000,
            "relative_velocity": {
                "kilometers_per_second": "1.7982011986",
                "kilometers_per_hour": "6473.5243149048",
                "miles_per_hour": "4022.396261114"
            },
            "miss_distance": {
                "astronomical": "0.0934138919",
                "lunar": "36.3380039491",
                "kilometers": "13974519.256650253",
                "miles": "8683363.6131613714"
            },
            "orbiting_body": "Earth"
        },
        {
            "close_approach_date": "1995-02-20",
            "close_approach_date_full": "1995-Feb-20 22:41",
            "epoch_date_close_approach": 793320060000,
            "relative_velocity": {
                "kilometers_per_second": "0.681436673",
                "kilometers_per_hour": "2453.1720226433",
                "miles_per_hour": "1524.3056937363"
            },
            "miss_distance": {
                "astronomical": "0.030834695",
                "lunar": "11.994696355",
                "kilometers": "4612804.69409965",
                "miles": "2866263.92648917"
            },
            "orbiting_body": "Earth"
        },
        {
            "close_approach_date": "2017-09-24",
            "close_approach_date_full": "2017-Sep-24 13:17",
            "epoch_date_close_approach": 1506259020000,
            "relative_velocity": {
                "kilometers_per_second": "1.7871333287",
                "kilometers_per_hour": "6433.6799832725",
                "miles_per_hour": "3997.6385429395"
            },
            "miss_distance": {
                "astronomical": "0.0918778902",
                "lunar": "35.7404992878",
                "kilometers": "13744736.674013874",
                "miles": "8540583.3371205012"
            },
            "orbiting_body": "Earth"
        },
        {
            "close_approach_date": "2029-02-26",
            "close_approach_date_full": "2029-Feb-26 01:47",
            "epoch_date_close_approach": 1866764820000,
            "relative_velocity": {
                "kilometers_per_second": "0.6977177113",
                "kilometers_per_hour": "2511.7837608025",
                "miles_per_hour": "1560.7247484831"
            },
            "miss_distance": {
                "astronomical": "0.0305157416",
                "lunar": "11.8706234824",
                "kilometers": "4565089.944830392",
                "miles": "2836615.3561157296"
            },
            "orbiting_body": "Earth"
        }
    ],
    "orbital_data": {
        "orbit_id": "7",
        "orbit_determination_date": "2018-02-10 07:09:14",
        "first_observation_date": "2017-08-24",
        "last_observation_date": "2017-10-21",
        "data_arc_in_days": 58,
        "observations_used": 60,
        "orbit_uncertainty": "5",
        "minimum_orbit_intersection": ".0313328",
        "jupiter_tisserand_invariant": "5.797",
        "epoch_osculation": "2459000.5",
        "eccentricity": ".04069938913819045",
        "semi_major_axis": "1.063241308674419",
        "inclination": "1.303164298920677",
        "ascending_node_longitude": "343.8325053755501",
        "orbital_period": "400.4480552179637",
        "perihelion_distance": "1.01996803690488",
        "perihelion_argument": "156.8222234758257",
        "aphelion_distance": "1.106514580443958",
        "perihelion_time": "2458973.518972393026",
        "mean_anomaly": "24.25575505223423",
        "mean_motion": ".8989930037344097",
        "equinox": "J2000",
        "orbit_class": {
            "orbit_class_type": "AMO",
            "orbit_class_description": "Near-Earth asteroid orbits similar to that of 1221 Amor",
            "orbit_class_range": "1.017 AU < q (perihelion) < 1.3 AU"
        }
    },
    "is_sentry_object": false
}